NORAD_CAT_ID,OBJECT_NAME,OBJECT_TYPE,EPOCH,MEAN_MOTION,ECCENTRICITY,INCLINATION,RA_OF_ASC_NODE,ARG_OF_PERICENTER,MEAN_ANOMALY,BSTAR,MEAN_MOTION_DOT,MEAN_MOTION_DDOT,TLE_LINE0,TLE_LINE1,TLE_LINE2,SEMIMAJOR_AXIS,PERIOD,APOGEE,PERIGEE,DECAYED
52533.0,STARLINK-3951,PAYLOAD,2023-01-08 11:41:09,15.08865004,0.0001886,53.2137,279.5232,66.7283,293.3907,0.00095129,0.00014895,0.0,0 STARLINK-3951,1 52533U 22051A   23008.48691224  .00014895  00000-0  95129-3 0  9993,2 52533  53.2137 279.5232 0001886  66.7283 293.3907 15.08865004 36892,6917.804,95.436,540.974,538.364,0.0
52533.0,STARLINK-3951,PAYLOAD,2023-01-09 01:59:37,15.08850392,0.0002377,53.2182,276.8438,88.2516,271.8749,0.00034193,5.159e-05,0.0,0 STARLINK-3951,1 52533U 22051A   23009.08307460  .00005159  00000-0  34193-3 0  9993,2 52533  53.2182 276.8438 0002377  88.2516 271.8749 15.08850392 37052,6917.849,95.437,541.3580000000002,538.069,0.0
52533.0,STARLINK-3951,PAYLOAD,2023-01-10 01:50:24,15.08844087,0.0001665,53.2148,272.384,81.5104,278.6077,0.00017938,2.568e-05,0.0,0 STARLINK-3951,1 52533U 22051A   23010.07667497  .00002568  00000-0  17938-3 0  9992,2 52533  53.2148 272.3840 0001665  81.5104 278.6077 15.08844087 37200,6917.868,95.437,540.885,538.581,0.0
52533.0,STARLINK-3951,PAYLOAD,2023-01-10 09:47:20,15.08839624,0.000167,53.2148,270.898,82.4932,277.6249,0.00015041,2.107e-05,0.0,0 STARLINK-3951,1 52533U 22051A   23010.40787700  .00002107  00000-0  15041-3 0  9991,2 52533  53.2148 270.8980 0001670  82.4932 277.6249 15.08839624 37181,6917.882,95.438,540.9019999999998,538.591,0.0
52533.0,STARLINK-3951,PAYLOAD,2023-01-11 12:48:53,15.08846467,0.0001851,53.2155,265.8487,98.209,261.9112,0.00022902,3.359e-05,0.0,0 STARLINK-3951,1 52533U 22051A   23011.53395515  .00003359  00000-0  22902-3 0  9999,2 52533  53.2155 265.8487 0001851  98.2090 261.9112 15.08846467 37421,6917.861,95.437,541.006,538.445,0.0
52533.0,STARLINK-3951,PAYLOAD,2023-01-12 19:01:13,15.08833257,0.000181,53.2141,260.191,72.2504,287.8686,-5.2473e-05,-1.123e-05,0.0,0 STARLINK-3951,1 52533U 22051A   23012.79252149 -.00001123  00000-0 -52473-4 0  9999,2 52533  53.2141 260.1910 0001810  72.2504 287.8686 15.08833257 37619,6917.901,95.438,541.018,538.514,0.0
52533.0,STARLINK-3951,PAYLOAD,2023-01-12 22:11:59,15.08837258,0.0001318,53.2133,259.6002,80.7582,279.3559,3.5172e-05,2.72e-06,0.0,0 STARLINK-3951,1 52533U 22051A   23012.92499912  .00000272  00000-0  35172-4 0  9994,2 52533  53.2133 259.6002 0001318  80.7582 279.3559 15.08837258 37562,6917.889,95.438,540.6659999999998,538.842,0.0
52533.0,STARLINK-3951,PAYLOAD,2023-01-12 23:47:22,15.08839957,0.0001255,53.2134,259.3034,84.0873,276.0262,9.2977e-05,1.192e-05,0.0,0 STARLINK-3951,1 52533U 22051A   23012.99123758  .00001192  00000-0  92977-4 0  9991,2 52533  53.2134 259.3034 0001255  84.0873 276.0262 15.08839957 37647,6917.880999999999,95.438,540.614,538.877,0.0
52533.0,STARLINK-3951,PAYLOAD,2023-01-13 10:55:05,15.08840235,0.0001367,53.2139,257.2195,80.3339,279.7807,0.00012062,1.632e-05,0.0,0 STARLINK-3951,1 52533U 22051A   23013.45491958  .00001632  00000-0  12062-3 0  9998,2 52533  53.2139 257.2195 0001367  80.3339 279.7807 15.08840235 37643,6917.88,95.438,540.69,538.799,0.0
52533.0,STARLINK-3951,PAYLOAD,2023-01-13 22:02:47,15.08843491,0.0001237,53.2139,255.1385,84.8491,275.2642,0.00025461,3.767e-05,0.0,0 STARLINK-3951,1 52533U 22051A   23013.91859960  .00003767  00000-0  25461-3 0  9998,2 52533  53.2139 255.1385 0001237  84.8491 275.2642 15.08843491 37718,6917.87,95.437,540.59,538.879,0.0
52533.0,STARLINK-3951,PAYLOAD,2023-01-14 01:13:33,15.08846688,0.0001246,53.2133,254.5427,85.1368,274.9766,0.00019844,2.872e-05,0.0,0 STARLINK-3951,1 52533U 22051A   23014.05107776  .00002872  00000-0  19844-3 0  9999,2 52533  53.2133 254.5427 0001246  85.1368 274.9766 15.08846688 37803,6917.86,95.437,540.587,538.863,0.0
52533.0,STARLINK-3951,PAYLOAD,2023-01-15 09:01:15,15.08844866,0.0001376999999999,53.2137,248.5963,73.6293,286.485,0.00012028,1.627e-05,0.0,0 STARLINK-3951,1 52533U 22051A   23015.37587632  .00001627  00000-0  12028-3 0  9992,2 52533  53.2137 248.5963 0001377  73.6293 286.4850 15.08844866 38000,6917.866,95.437,540.683,538.778,0.0
52533.0,STARLINK-3951,PAYLOAD,2023-01-15 21:44:20,15.08843411,0.0001193999999999,53.2141,246.2162,89.0396,271.0733,0.00011688,1.573e-05,0.0,0 STARLINK-3951,1 52533U 22051A   23015.90579767  .00001573  00000-0  11688-3 0  9992,2 52533  53.2141 246.2162 0001194  89.0396 271.0733 15.08843411 38019,6917.87,95.437,540.561,538.909,0.0
52533.0,STARLINK-3951,PAYLOAD,2023-01-16 21:35:08,15.088343599999998,0.0001527,53.2143,241.7549,91.26,268.8567,3.3462e-05,2.45e-06,0.0,0 STARLINK-3951,1 52533U 22051A   23016.89940603  .00000245  00000-0  33462-4 0  9992,2 52533  53.2143 241.7549 0001527  91.2600 268.8567 15.08834360 38239,6917.898,95.438,540.819,538.706,0.0
52533.0,STARLINK-3951,PAYLOAD,2023-01-17 15:04:23,15.08830371,0.0001215,53.214,238.4837,95.2121,264.9009,8.5371e-05,1.071e-05,0.0,0 STARLINK-3951,1 52533U 22051A   23017.62805161  .00001071  00000-0  85371-4 0  9997,2 52533  53.2140 238.4837 0001215  95.2121 264.9009 15.08830371 38275,6917.91,95.438,540.615,538.934,0.0
52533.0,STARLINK-3951,PAYLOAD,2023-01-17 21:25:56,15.08835549,0.0001181,53.2144,237.2947,94.6702,265.4425,7.4803e-05,9.03e-06,0.0,0 STARLINK-3951,1 52533U 22051A   23017.89300969  .00000903  00000-0  74803-4 0  9993,2 52533  53.2144 237.2947 0001181  94.6702 265.4425 15.08835549 38313,6917.894,95.438,540.576,538.942,0.0
52533.0,STARLINK-3951,PAYLOAD,2023-01-18 00:36:42,15.08837565,0.0001165,53.2143,236.6998,94.7657,265.3468,0.00010651,1.408e-05,0.0,0 STARLINK-3951,1 52533U 22051A   23018.02548917  .00001408  00000-0  10651-3 0  9997,2 52533  53.2143 236.6998 0001165  94.7657 265.3468 15.08837565 38409,6917.888000000001,95.438,540.559,538.947,0.0
52533.0,STARLINK-3951,PAYLOAD,2023-01-18 06:58:14,15.08838894,0.0001174,53.2143,235.5102,94.9919,265.1208,0.00012282,1.667e-05,0.0,0 STARLINK-3951,1 52533U 22051A   23018.29044979  .00001667  00000-0  12282-3 0  9994,2 52533  53.2143 235.5102 0001174  94.9919 265.1208 15.08838894 38379,6917.884,95.438,540.561,538.937,0.0
52533.0,STARLINK-3951,PAYLOAD,2023-01-18 21:16:42,15.08846175,0.0001078,53.2142,232.8339,100.3719,259.7395,0.00029424,4.399e-05,0.0,0 STARLINK-3951,1 52533U 22051A   23018.88660722  .00004399  00000-0  29424-3 0  9990,2 52533  53.2142 232.8339 0001078 100.3719 259.7395 15.08846175 38460,6917.861999999999,95.437,540.472,538.981,0.0
52533.0,STARLINK-3951,PAYLOAD,2023-01-19 00:27:28,15.08851216,0.0001088,53.2144,232.2386,101.8903,258.2211,0.0003483,5.261e-05,0.0,0 STARLINK-3951,1 52533U 22051A   23019.01908459  .00005261  00000-0  34830-3 0  9994,2 52533  53.2144 232.2386 0001088 101.8903 258.2211 15.08851216 38553,6917.846,95.437,540.464,538.9580000000001,0.0
52533.0,STARLINK-3951,PAYLOAD,2023-01-19 06:49:01,15.08845472,9.92e-05,53.2136,231.0476,86.1992,273.9113,0.00024064,3.545e-05,0.0,0 STARLINK-3951,1 52533U 22051A   23019.28404717  .00003545  00000-0  24064-3 0  9992,2 52533  53.2136 231.0476 0000992  86.1992 273.9113 15.08845472 38593,6917.8640000000005,95.437,540.415,539.0419999999999,0.0
52533.0,STARLINK-3951,PAYLOAD,2023-01-19 14:45:57,15.08835669,0.0001349,53.2158,229.564,100.029,260.0854,1.4174e-05,-6.2e-07,0.0,0 STARLINK-3951,1 52533U 22051A   23019.61525357 -.00000062  00000-0  14174-4 0  9997,2 52533  53.2158 229.5640 0001349 100.0290 260.0854 15.08835669 38570,6917.894,95.438,540.692,538.825,0.0
52533.0,STARLINK-3951,PAYLOAD,2023-01-20 09:50:35,15.08840436,0.0001147,53.2138,225.9938,89.2212,270.8912,0.00010748,1.423e-05,0.0,0 STARLINK-3951,1 52533U 22051A   23020.41013203  .00001423  00000-0  10748-3 0  9992,2 52533  53.2138 225.9938 0001147  89.2212 270.8912 15.08840436 38691,6917.879,95.438,540.538,538.951,0.0
52533.0,STARLINK-3951,PAYLOAD,2023-01-20 20:58:17,15.08845888,0.0001127,53.2134,223.9125,90.5301,269.582,0.00014504,2.022e-05,0.0,0 STARLINK-3951,1 52533U 22051A   23020.87380869  .00002022  00000-0  14504-3 0  9997,2 52533  53.2134 223.9125 0001127  90.5301 269.5820 15.08845888 38830,6917.861999999999,95.437,540.507,538.948,0.0
52533.0,STARLINK-3951,PAYLOAD,2023-01-21 20:49:04,15.0884586,0.0001113,53.2131,219.4521,79.3219,280.7898,0.00021604,3.153e-05,0.0,0 STARLINK-3951,1 52533U 22051A   23021.86740958  .00003153  00000-0  21604-3 0  9991,2 52533  53.2131 219.4521 0001113  79.3219 280.7898 15.08845860 38981,6917.861999999999,95.437,540.497,538.9580000000001,0.0
52533.0,STARLINK-3951,PAYLOAD,2023-01-22 12:42:57,15.08795379,0.0001343,53.2135,216.4785,76.6293,283.4849,-0.00057449,-9.408e-05,0.0,0 STARLINK-3951,1 52533U 22051A   23022.52983676 -.00009408  00000-0 -57449-3 0  9998,2 52533  53.2135 216.4785 0001343  76.6293 283.4849 15.08795379 39088,6918.017,95.44,540.811,538.953,0.0
52533.0,STARLINK-3951,PAYLOAD,2023-01-22 19:04:29,15.08831151,0.0001261,53.2135,215.2888,80.6426,279.4709,-6.3411e-06,-3.89e-06,0.0,0 STARLINK-3951,1 52533U 22051A   23022.79478278 -.00000389  00000-0 -63411-5 0  9991,2 52533  53.2135 215.2888 0001261  80.6426 279.4709 15.08831151 39125,6917.906999999999,95.438,540.645,538.9,0.0
52533.0,STARLINK-3951,PAYLOAD,2023-01-23 18:55:16,15.08844274,0.0001328,53.2136,210.8279,80.9951,279.1191,0.00025953,3.845e-05,0.0,0 STARLINK-3951,1 52533U 22051A   23023.78838192  .00003845  00000-0  25953-3 0  9991,2 52533  53.2136 210.8279 0001328  80.9951 279.1191 15.08844274 39279,6917.866999999999,95.437,540.651,538.814,0.0
52533.0,STARLINK-3951,PAYLOAD,2023-01-24 18:46:02,15.08867606,0.0001391,53.2138,206.3668,80.4504,279.6646,0.00065339,0.00010134,0.0,0 STARLINK-3951,1 52533U 22051A   23024.78197399  .00010134  00000-0  65339-3 0  9990,2 52533  53.2138 206.3668 0001391  80.4504 279.6646 15.08867606 39423,6917.795999999999,95.436,540.623,538.6990000000001,0.0
